GLOBALSTAR M035         
1 25851U 99037A   25285.34557916 -.00000108  00000+0 -16789-2 0  9994
2 25851  51.9922 153.6912 0013399 166.9498   4.7615 11.04539989109200
GLOBALSTAR M032         
1 25852U 99037B   25285.61381323 -.00000060  00000+0  22536-3 0  9996
2 25852  51.9978 330.1927 0012285   5.0979 354.9944 11.19063028147939
GLOBALSTAR M051         
1 25853U 99037C   25285.58414861 -.00000079  00000+0 -17695-3 0  9998
2 25853  51.9765 117.6844 0001504  79.7753 280.3227 11.42205378145802
GLOBALSTAR M030         
1 25854U 99037D   25285.33793819 -.00000087  00000+0 -26013-3 0  9998
2 25854  51.9871 276.9363 0002991 260.0810  99.9670 11.55114815163586
GLOBALSTAR M048         
1 25872U 99041A   25285.61743262 -.00000075  00000+0 -13812-3 0  9991
2 25872  51.9381  57.1751 0013486  31.8867 340.4444 11.33859375138307
GLOBALSTAR M026         
1 25873U 99041B   25285.67011934 -.00000108  00000+0 -16280-2 0  9990
2 25873  51.9999 269.6878 0001822  99.9287  72.1539 11.06851961161498
GLOBALSTAR M043         
1 25874U 99041C   25285.57268209 -.00000033  00000+0  10586-2 0  9998
2 25874  51.9380 169.6076 0013401 147.6643 295.1921 11.25694644136099
GLOBALSTAR M028         
1 25875U 99041D   25285.16164769 -.00000116  00000+0 -10500-3 0  9990
2 25875  51.9621 204.2667 0063296 326.1558  33.5272 12.50589203204818
